<?xml version="1.0" encoding="UTF-8"?>
<seiscomp xmlns="http://geofon.gfz-potsdam.de/ns/seiscomp3-schema/0.11" version="0.11">
  <EventParameters>
    <pick publicID="20190531.004407.91-AIC-NZ.WIZ.10.HHZ">
      <time>
        <value>2019-05-31T00:44:07.913133Z</value>
      </time>
      <waveformID networkCode="NZ" stationCode="WIZ" locationCode="10" channelCode="HHZ"/>
      <methodID>AIC</methodID>
      <phaseHint>P</phaseHint>
      <evaluationMode>automatic</evaluationMode>
      <creationInfo>
        <agencyID>VOLCTEST</agencyID>
        <author>scautopick@sc3sp-vm</author>
        <creationTime>2019-06-03T00:18:43.537538Z</creationTime>
      </creationInfo>
    </pick>
    <pick publicID="20190531.004408.24-S-AIC-NZ.WIZ.10.HHN">
      <time>
        <value>2019-05-31T00:44:08.243133Z</value>
      </time>
      <waveformID networkCode="NZ" stationCode="WIZ" locationCode="10" channelCode="HHN"/>
      <filterID>BW(4,2,15)</filterID>
      <methodID>L2-AIC-GRID</methodID>
      <phaseHint>S</phaseHint>
      <evaluationMode>automatic</evaluationMode>
      <creationInfo>
        <agencyID>VOLCTEST</agencyID>
        <author>scautopick@sc3sp-vm</author>
        <creationTime>2019-06-03T00:18:43.538416Z</creationTime>
      </creationInfo>
      <comment>
        <text>20190531.004407.91-AIC-NZ.WIZ.10.HHZ</text>
        <id>RefPickID</id>
      </comment>
    </pick>
    <pick publicID="20190531.010441.92-AIC-NZ.WIZ.10.HHZ">
      <time>
        <value>2019-05-31T01:04:41.923133Z</value>
      </time>
      <waveformID networkCode="NZ" stationCode="WIZ" locationCode="10" channelCode="HHZ"/>
      <methodID>AIC</methodID>
      <phaseHint>P</phaseHint>
      <evaluationMode>automatic</evaluationMode>
      <creationInfo>
        <agencyID>VOLCTEST</agencyID>
        <author>scautopick@sc3sp-vm</author>
        <creationTime>2019-06-03T00:18:43.57997Z</creationTime>
      </creationInfo>
    </pick>
    <pick publicID="20190531.010444.01-S-AIC-NZ.WIZ.10.HHN">
      <time>
        <value>2019-05-31T01:04:44.013133Z</value>
      </time>
      <waveformID networkCode="NZ" stationCode="WIZ" locationCode="10" channelCode="HHN"/>
      <filterID>BW(4,2,15)</filterID>
      <methodID>L2-AIC-GRID</methodID>
      <phaseHint>S</phaseHint>
      <evaluationMode>automatic</evaluationMode>
      <creationInfo>
        <agencyID>VOLCTEST</agencyID>
        <author>scautopick@sc3sp-vm</author>
        <creationTime>2019-06-03T00:18:43.580902Z</creationTime>
      </creationInfo>
      <comment>
        <text>20190531.010441.92-AIC-NZ.WIZ.10.HHZ</text>
        <id>RefPickID</id>
      </comment>
    </pick>
    <pick publicID="20190531.011143.20-AIC-NZ.WIZ.10.HHZ">
      <time>
        <value>2019-05-31T01:11:43.203133Z</value>
      </time>
      <waveformID networkCode="NZ" stationCode="WIZ" locationCode="10" channelCode="HHZ"/>
      <methodID>AIC</methodID>
      <phaseHint>P</phaseHint>
      <evaluationMode>automatic</evaluationMode>
      <creationInfo>
        <agencyID>VOLCTEST</agencyID>
        <author>scautopick@sc3sp-vm</author>
        <creationTime>2019-06-03T00:18:43.596237Z</creationTime>
      </creationInfo>
    </pick>
    <pick publicID="20190531.011144.49-S-AIC-NZ.WIZ.10.HHN">
      <time>
        <value>2019-05-31T01:11:44.493133Z</value>
      </time>
      <waveformID networkCode="NZ" stationCode="WIZ" locationCode="10" channelCode="HHN"/>
      <filterID>BW(4,2,15)</filterID>
      <methodID>L2-AIC-GRID</methodID>
      <phaseHint>S</phaseHint>
      <evaluationMode>automatic</evaluationMode>
      <creationInfo>
        <agencyID>VOLCTEST</agencyID>
        <author>scautopick@sc3sp-vm</author>
        <creationTime>2019-06-03T00:18:43.596845Z</creationTime>
      </creationInfo>
      <comment>
        <text>20190531.011143.20-AIC-NZ.WIZ.10.HHZ</text>
        <id>RefPickID</id>
      </comment>
    </pick>
    <pick publicID="20190531.012809.27-AIC-NZ.WIZ.10.HHZ">
      <time>
        <value>2019-05-31T01:28:09.273133Z</value>
      </time>
      <waveformID networkCode="NZ" stationCode="WIZ" locationCode="10" channelCode="HHZ"/>
      <methodID>AIC</methodID>
      <phaseHint>P</phaseHint>
      <evaluationMode>automatic</evaluationMode>
      <creationInfo>
        <agencyID>VOLCTEST</agencyID>
        <author>scautopick@sc3sp-vm</author>
        <creationTime>2019-06-03T00:18:43.630289Z</creationTime>
      </creationInfo>
    </pick>
    <pick publicID="20190531.012810.04-S-AIC-NZ.WIZ.10.HHN">
      <time>
        <value>2019-05-31T01:28:10.043133Z</value>
      </time>
      <waveformID networkCode="NZ" stationCode="WIZ" locationCode="10" channelCode="HHN"/>
      <filterID>BW(4,2,15)</filterID>
      <methodID>L2-AIC-GRID</methodID>
      <phaseHint>S</phaseHint>
      <evaluationMode>automatic</evaluationMode>
      <creationInfo>
        <agencyID>VOLCTEST</agencyID>
        <author>scautopick@sc3sp-vm</author>
        <creationTime>2019-06-03T00:18:43.630845Z</creationTime>
      </creationInfo>
      <comment>
        <text>20190531.012809.27-AIC-NZ.WIZ.10.HHZ</text>
        <id>RefPickID</id>
      </comment>
    </pick>
    <pick publicID="20190531.014636.30-AIC-NZ.WIZ.10.HHZ">
      <time>
        <value>2019-05-31T01:46:36.303133Z</value>
      </time>
      <waveformID networkCode="NZ" stationCode="WIZ" locationCode="10" channelCode="HHZ"/>
      <methodID>AIC</methodID>
      <phaseHint>P</phaseHint>
      <evaluationMode>automatic</evaluationMode>
      <creationInfo>
        <agencyID>VOLCTEST</agencyID>
        <author>scautopick@sc3sp-vm</author>
        <creationTime>2019-06-03T00:18:43.668022Z</creationTime>
      </creationInfo>
    </pick>
    <pick publicID="20190531.014637.07-S-AIC-NZ.WIZ.10.HHN">
      <time>
        <value>2019-05-31T01:46:37.073133Z</value>
      </time>
      <waveformID networkCode="NZ" stationCode="WIZ" locationCode="10" channelCode="HHN"/>
      <filterID>BW(4,2,15)</filterID>
      <methodID>L2-AIC-GRID</methodID>
      <phaseHint>S</phaseHint>
      <evaluationMode>automatic</evaluationMode>
      <creationInfo>
        <agencyID>VOLCTEST</agencyID>
        <author>scautopick@sc3sp-vm</author>
        <creationTime>2019-06-03T00:18:43.668598Z</creationTime>
      </creationInfo>
      <comment>
        <text>20190531.014636.30-AIC-NZ.WIZ.10.HHZ</text>
        <id>RefPickID</id>
      </comment>
    </pick>
    <pick publicID="20190531.015034.40-AIC-NZ.WIZ.10.HHZ">
      <time>
        <value>2019-05-31T01:50:34.403133Z</value>
      </time>
      <waveformID networkCode="NZ" stationCode="WIZ" locationCode="10" channelCode="HHZ"/>
      <methodID>AIC</methodID>
      <phaseHint>P</phaseHint>
      <evaluationMode>automatic</evaluationMode>
      <creationInfo>
        <agencyID>VOLCTEST</agencyID>
        <author>scautopick@sc3sp-vm</author>
        <creationTime>2019-06-03T00:18:43.678752Z</creationTime>
      </creationInfo>
    </pick>
    <pick publicID="20190531.015035.22-S-AIC-NZ.WIZ.10.HHN">
      <time>
        <value>2019-05-31T01:50:35.223133Z</value>
      </time>
      <waveformID networkCode="NZ" stationCode="WIZ" locationCode="10" channelCode="HHN"/>
      <filterID>BW(4,2,15)</filterID>
      <methodID>L2-AIC-GRID</methodID>
      <phaseHint>S</phaseHint>
      <evaluationMode>automatic</evaluationMode>
      <creationInfo>
        <agencyID>VOLCTEST</agencyID>
        <author>scautopick@sc3sp-vm</author>
        <creationTime>2019-06-03T00:18:43.679523Z</creationTime>
      </creationInfo>
      <comment>
        <text>20190531.015034.40-AIC-NZ.WIZ.10.HHZ</text>
        <id>RefPickID</id>
      </comment>
    </pick>
    <pick publicID="20190531.015309.54-AIC-NZ.WIZ.10.HHZ">
      <time>
        <value>2019-05-31T01:53:09.543133Z</value>
      </time>
      <waveformID networkCode="NZ" stationCode="WIZ" locationCode="10" channelCode="HHZ"/>
      <methodID>AIC</methodID>
      <phaseHint>P</phaseHint>
      <evaluationMode>automatic</evaluationMode>
      <creationInfo>
        <agencyID>VOLCTEST</agencyID>
        <author>scautopick@sc3sp-vm</author>
        <creationTime>2019-06-03T00:18:43.687082Z</creationTime>
      </creationInfo>
    </pick>
    <pick publicID="20190531.015309.91-S-AIC-NZ.WIZ.10.HHN">
      <time>
        <value>2019-05-31T01:53:09.913133Z</value>
      </time>
      <waveformID networkCode="NZ" stationCode="WIZ" locationCode="10" channelCode="HHN"/>
      <filterID>BW(4,2,15)</filterID>
      <methodID>L2-AIC-GRID</methodID>
      <phaseHint>S</phaseHint>
      <evaluationMode>automatic</evaluationMode>
      <creationInfo>
        <agencyID>VOLCTEST</agencyID>
        <author>scautopick@sc3sp-vm</author>
        <creationTime>2019-06-03T00:18:43.687575Z</creationTime>
      </creationInfo>
      <comment>
        <text>20190531.015309.54-AIC-NZ.WIZ.10.HHZ</text>
        <id>RefPickID</id>
      </comment>
    </pick>
    <pick publicID="20190531.021459.19-AIC-NZ.WIZ.10.HHZ">
      <time>
        <value>2019-05-31T02:14:59.193133Z</value>
      </time>
      <waveformID networkCode="NZ" stationCode="WIZ" locationCode="10" channelCode="HHZ"/>
      <methodID>AIC</methodID>
      <phaseHint>P</phaseHint>
      <evaluationMode>automatic</evaluationMode>
      <creationInfo>
        <agencyID>VOLCTEST</agencyID>
        <author>scautopick@sc3sp-vm</author>
        <creationTime>2019-06-03T00:18:43.731986Z</creationTime>
      </creationInfo>
    </pick>
    <pick publicID="20190531.021500.96-S-AIC-NZ.WIZ.10.HHN">
      <time>
        <value>2019-05-31T02:15:00.963133Z</value>
      </time>
      <waveformID networkCode="NZ" stationCode="WIZ" locationCode="10" channelCode="HHN"/>
      <filterID>BW(4,2,15)</filterID>
      <methodID>L2-AIC-GRID</methodID>
      <phaseHint>S</phaseHint>
      <evaluationMode>automatic</evaluationMode>
      <creationInfo>
        <agencyID>VOLCTEST</agencyID>
        <author>scautopick@sc3sp-vm</author>
        <creationTime>2019-06-03T00:18:43.732844Z</creationTime>
      </creationInfo>
      <comment>
        <text>20190531.021459.19-AIC-NZ.WIZ.10.HHZ</text>
        <id>RefPickID</id>
      </comment>
    </pick>
    <pick publicID="20190531.022655.33-AIC-NZ.WIZ.10.HHZ">
      <time>
        <value>2019-05-31T02:26:55.333133Z</value>
      </time>
      <waveformID networkCode="NZ" stationCode="WIZ" locationCode="10" channelCode="HHZ"/>
      <methodID>AIC</methodID>
      <phaseHint>P</phaseHint>
      <evaluationMode>automatic</evaluationMode>
      <creationInfo>
        <agencyID>VOLCTEST</agencyID>
        <author>scautopick@sc3sp-vm</author>
        <creationTime>2019-06-03T00:18:43.759009Z</creationTime>
      </creationInfo>
    </pick>
    <pick publicID="20190531.022657.53-S-AIC-NZ.WIZ.10.HHN">
      <time>
        <value>2019-05-31T02:26:57.533133Z</value>
      </time>
      <waveformID networkCode="NZ" stationCode="WIZ" locationCode="10" channelCode="HHN"/>
      <filterID>BW(4,2,15)</filterID>
      <methodID>L2-AIC-GRID</methodID>
      <phaseHint>S</phaseHint>
      <evaluationMode>automatic</evaluationMode>
      <creationInfo>
        <agencyID>VOLCTEST</agencyID>
        <author>scautopick@sc3sp-vm</author>
        <creationTime>2019-06-03T00:18:43.759839Z</creationTime>
      </creationInfo>
      <comment>
        <text>20190531.022655.33-AIC-NZ.WIZ.10.HHZ</text>
        <id>RefPickID</id>
      </comment>
    </pick>
    <pick publicID="20190531.024814.54-AIC-NZ.WIZ.10.HHZ">
      <time>
        <value>2019-05-31T02:48:14.543133Z</value>
      </time>
      <waveformID networkCode="NZ" stationCode="WIZ" locationCode="10" channelCode="HHZ"/>
      <methodID>AIC</methodID>
      <phaseHint>P</phaseHint>
      <evaluationMode>automatic</evaluationMode>
      <creationInfo>
        <agencyID>VOLCTEST</agencyID>
        <author>scautopick@sc3sp-vm</author>
        <creationTime>2019-06-03T00:18:43.804326Z</creationTime>
      </creationInfo>
    </pick>
    <pick publicID="20190531.024815.10-S-AIC-NZ.WIZ.10.HHN">
      <time>
        <value>2019-05-31T02:48:15.103133Z</value>
      </time>
      <waveformID networkCode="NZ" stationCode="WIZ" locationCode="10" channelCode="HHN"/>
      <filterID>BW(4,2,15)</filterID>
      <methodID>L2-AIC-GRID</methodID>
      <phaseHint>S</phaseHint>
      <evaluationMode>automatic</evaluationMode>
      <creationInfo>
        <agencyID>VOLCTEST</agencyID>
        <author>scautopick@sc3sp-vm</author>
        <creationTime>2019-06-03T00:18:43.805173Z</creationTime>
      </creationInfo>
      <comment>
        <text>20190531.024814.54-AIC-NZ.WIZ.10.HHZ</text>
        <id>RefPickID</id>
      </comment>
    </pick>
    <pick publicID="20190531.025443.32-AIC-NZ.WIZ.10.HHZ">
      <time>
        <value>2019-05-31T02:54:43.323133Z</value>
      </time>
      <waveformID networkCode="NZ" stationCode="WIZ" locationCode="10" channelCode="HHZ"/>
      <methodID>AIC</methodID>
      <phaseHint>P</phaseHint>
      <evaluationMode>automatic</evaluationMode>
      <creationInfo>
        <agencyID>VOLCTEST</agencyID>
        <author>scautopick@sc3sp-vm</author>
        <creationTime>2019-06-03T00:18:43.819936Z</creationTime>
      </creationInfo>
    </pick>
    <pick publicID="20190531.025444.00-S-AIC-NZ.WIZ.10.HHN">
      <time>
        <value>2019-05-31T02:54:44.003133Z</value>
      </time>
      <waveformID networkCode="NZ" stationCode="WIZ" locationCode="10" channelCode="HHN"/>
      <filterID>BW(4,2,15)</filterID>
      <methodID>L2-AIC-GRID</methodID>
      <phaseHint>S</phaseHint>
      <evaluationMode>automatic</evaluationMode>
      <creationInfo>
        <agencyID>VOLCTEST</agencyID>
        <author>scautopick@sc3sp-vm</author>
        <creationTime>2019-06-03T00:18:43.820476Z</creationTime>
      </creationInfo>
      <comment>
        <text>20190531.025443.32-AIC-NZ.WIZ.10.HHZ</text>
        <id>RefPickID</id>
      </comment>
    </pick>
    <pick publicID="20190531.025805.81-AIC-NZ.WIZ.10.HHZ">
      <time>
        <value>2019-05-31T02:58:05.813133Z</value>
      </time>
      <waveformID networkCode="NZ" stationCode="WIZ" locationCode="10" channelCode="HHZ"/>
      <methodID>AIC</methodID>
      <phaseHint>P</phaseHint>
      <evaluationMode>automatic</evaluationMode>
      <creationInfo>
        <agencyID>VOLCTEST</agencyID>
        <author>scautopick@sc3sp-vm</author>
        <creationTime>2019-06-03T00:18:43.829509Z</creationTime>
      </creationInfo>
    </pick>
    <pick publicID="20190531.030810.72-AIC-NZ.WIZ.10.HHZ">
      <time>
        <value>2019-05-31T03:08:10.723133Z</value>
      </time>
      <waveformID networkCode="NZ" stationCode="WIZ" locationCode="10" channelCode="HHZ"/>
      <methodID>AIC</methodID>
      <phaseHint>P</phaseHint>
      <evaluationMode>automatic</evaluationMode>
      <creationInfo>
        <agencyID>VOLCTEST</agencyID>
        <author>scautopick@sc3sp-vm</author>
        <creationTime>2019-06-03T00:18:43.852777Z</creationTime>
      </creationInfo>
    </pick>
    <pick publicID="20190531.030811.81-S-AIC-NZ.WIZ.10.HHN">
      <time>
        <value>2019-05-31T03:08:11.813133Z</value>
      </time>
      <waveformID networkCode="NZ" stationCode="WIZ" locationCode="10" channelCode="HHN"/>
      <filterID>BW(4,2,15)</filterID>
      <methodID>L2-AIC-GRID</methodID>
      <phaseHint>S</phaseHint>
      <evaluationMode>automatic</evaluationMode>
      <creationInfo>
        <agencyID>VOLCTEST</agencyID>
        <author>scautopick@sc3sp-vm</author>
        <creationTime>2019-06-03T00:18:43.853496Z</creationTime>
      </creationInfo>
      <comment>
        <text>20190531.030810.72-AIC-NZ.WIZ.10.HHZ</text>
        <id>RefPickID</id>
      </comment>
    </pick>
    <pick publicID="20190531.032343.42-AIC-NZ.WIZ.10.HHZ">
      <time>
        <value>2019-05-31T03:23:43.423133Z</value>
      </time>
      <waveformID networkCode="NZ" stationCode="WIZ" locationCode="10" channelCode="HHZ"/>
      <methodID>AIC</methodID>
      <phaseHint>P</phaseHint>
      <evaluationMode>automatic</evaluationMode>
      <creationInfo>
        <agencyID>VOLCTEST</agencyID>
        <author>scautopick@sc3sp-vm</author>
        <creationTime>2019-06-03T00:18:43.886207Z</creationTime>
      </creationInfo>
    </pick>
    <pick publicID="20190531.032913.90-AIC-NZ.WIZ.10.HHZ">
      <time>
        <value>2019-05-31T03:29:13.903133Z</value>
      </time>
      <waveformID networkCode="NZ" stationCode="WIZ" locationCode="10" channelCode="HHZ"/>
      <methodID>AIC</methodID>
      <phaseHint>P</phaseHint>
      <evaluationMode>automatic</evaluationMode>
      <creationInfo>
        <agencyID>VOLCTEST</agencyID>
        <author>scautopick@sc3sp-vm</author>
        <creationTime>2019-06-03T00:18:43.900399Z</creationTime>
      </creationInfo>
    </pick>
    <pick publicID="20190531.032917.54-S-AIC-NZ.WIZ.10.HHN">
      <time>
        <value>2019-05-31T03:29:17.543133Z</value>
      </time>
      <waveformID networkCode="NZ" stationCode="WIZ" locationCode="10" channelCode="HHN"/>
      <filterID>BW(4,2,15)</filterID>
      <methodID>L2-AIC-GRID</methodID>
      <phaseHint>S</phaseHint>
      <evaluationMode>automatic</evaluationMode>
      <creationInfo>
        <agencyID>VOLCTEST</agencyID>
        <author>scautopick@sc3sp-vm</author>
        <creationTime>2019-06-03T00:18:43.901637Z</creationTime>
      </creationInfo>
      <comment>
        <text>20190531.032913.90-AIC-NZ.WIZ.10.HHZ</text>
        <id>RefPickID</id>
      </comment>
    </pick>
    <pick publicID="20190531.040812.62-AIC-NZ.WIZ.10.HHZ">
      <time>
        <value>2019-05-31T04:08:12.623187Z</value>
      </time>
      <waveformID networkCode="NZ" stationCode="WIZ" locationCode="10" channelCode="HHZ"/>
      <methodID>AIC</methodID>
      <phaseHint>P</phaseHint>
      <evaluationMode>automatic</evaluationMode>
      <creationInfo>
        <agencyID>VOLCTEST</agencyID>
        <author>scautopick@sc3sp-vm</author>
        <creationTime>2019-06-03T00:18:43.977231Z</creationTime>
      </creationInfo>
    </pick>
    <pick publicID="20190531.040813.32-S-AIC-NZ.WIZ.10.HHN">
      <time>
        <value>2019-05-31T04:08:13.323187Z</value>
      </time>
      <waveformID networkCode="NZ" stationCode="WIZ" locationCode="10" channelCode="HHN"/>
      <filterID>BW(4,2,15)</filterID>
      <methodID>L2-AIC-GRID</methodID>
      <phaseHint>S</phaseHint>
      <evaluationMode>automatic</evaluationMode>
      <creationInfo>
        <agencyID>VOLCTEST</agencyID>
        <author>scautopick@sc3sp-vm</author>
        <creationTime>2019-06-03T00:18:43.97785Z</creationTime>
      </creationInfo>
      <comment>
        <text>20190531.040812.62-AIC-NZ.WIZ.10.HHZ</text>
        <id>RefPickID</id>
      </comment>
    </pick>
    <pick publicID="20190531.042853.02-AIC-NZ.WIZ.10.HHZ">
      <time>
        <value>2019-05-31T04:28:53.023134Z</value>
      </time>
      <waveformID networkCode="NZ" stationCode="WIZ" locationCode="10" channelCode="HHZ"/>
      <methodID>AIC</methodID>
      <phaseHint>P</phaseHint>
      <evaluationMode>automatic</evaluationMode>
      <creationInfo>
        <agencyID>VOLCTEST</agencyID>
        <author>scautopick@sc3sp-vm</author>
        <creationTime>2019-06-03T00:18:44.019687Z</creationTime>
      </creationInfo>
    </pick>
    <pick publicID="20190531.042853.60-S-AIC-NZ.WIZ.10.HHN">
      <time>
        <value>2019-05-31T04:28:53.603134Z</value>
      </time>
      <waveformID networkCode="NZ" stationCode="WIZ" locationCode="10" channelCode="HHN"/>
      <filterID>BW(4,2,15)</filterID>
      <methodID>L2-AIC-GRID</methodID>
      <phaseHint>S</phaseHint>
      <evaluationMode>automatic</evaluationMode>
      <creationInfo>
        <agencyID>VOLCTEST</agencyID>
        <author>scautopick@sc3sp-vm</author>
        <creationTime>2019-06-03T00:18:44.020471Z</creationTime>
      </creationInfo>
      <comment>
        <text>20190531.042853.02-AIC-NZ.WIZ.10.HHZ</text>
        <id>RefPickID</id>
      </comment>
    </pick>
